{
  "norad_id": 31121,
  "name": "SAUDICOMSAT 6",
  "history": [
    {
      "epoch": "2026-03-28T21:45:19.010592",
      "apogee_km": 735.4389790324185,
      "perigee_km": 635.0505246169741,
      "latitude_deg": 74.64086418361022,
      "longitude_deg": -100.87887711985968,
      "semi_major_axis_km": 7063.381751824696,
      "eccentricity": 0.00710626,
      "inclination_deg": 98.4021,
      "raan_deg": 53.9734,
      "arg_perigee_deg": 215.9861,
      "mean_anomaly_deg": 143.6544,
      "mean_motion_rev_day": 14.62459148
    },
    {
      "epoch": "2026-03-29T04:19:24.564288",
      "apogee_km": 735.4447348406065,
      "perigee_km": 635.0388056217689,
      "latitude_deg": 13.984821234642595,
      "longitude_deg": -74.6060396800749,
      "semi_major_axis_km": 7063.378770231187,
      "eccentricity": 0.0071075,
      "inclination_deg": 98.4022,
      "raan_deg": 54.2519,
      "arg_perigee_deg": 215.1229,
      "mean_anomaly_deg": 144.5275,
      "mean_motion_rev_day": 14.62460074
    }
  ]
}